stk.v.8.0

BEGIN Ephemeris

NumberOfEphemerisPoints 29930
CoordinateSystem Custom RIC Satellite/Origin

EphemerisTimePosVel

9179.000000 -307.300221 -402.668979 -63.101276 0.559983 0.077583 -0.091616
9180.000000 -307.208605 -402.108996 -63.178859 0.559796 0.077521 -0.091792
9181.000000 -307.116812 -401.549199 -63.256379 0.559599 0.077455 -0.091966
9182.000000 -307.024847 -400.989601 -63.333834 0.559401 0.077389 -0.092139
9183.000000 -306.932708 -400.430200 -63.411224 0.559203 0.077324 -0.092312
9184.000000 -306.840395 -399.870998 -63.488548 0.559005 0.077258 -0.092486
9185.000000 -306.747909 -399.311993 -63.565806 0.558807 0.077193 -0.092659
9186.000000 -306.655250 -398.753186 -63.642999 0.558609 0.077127 -0.092833
9187.000000 -306.562417 -398.194577 -63.720126 0.558411 0.077062 -0.093006
9188.000000 -306.469411 -397.636166 -63.797187 0.558213 0.076996 -0.093180
9189.000000 -306.376231 -397.077953 -63.874183 0.558015 0.076930 -0.093353
9190.000000 -306.282878 -396.519937 -63.951114 0.557817 0.076865 -0.093527
9191.000000 -306.189352 -395.962120 -64.027979 0.557619 0.076799 -0.093700
9192.000000 -306.095652 -395.404501 -64.104778 0.557422 0.076734 -0.093873
9193.000000 -306.001778 -394.847079 -64.181512 0.557224 0.076668 -0.094047
9194.000000 -305.907731 -394.289855 -64.258180 0.557026 0.076603 -0.094220
9195.000000 -305.813511 -393.732830 -64.334782 0.556828 0.076537 -0.094394
9196.000000 -305.719117 -393.176002 -64.411319 0.556630 0.076471 -0.094567
9197.000000 -305.624550 -392.619372 -64.487791 0.556432 0.076406 -0.094741
9198.000000 -305.529809 -392.062940 -64.564197 0.556234 0.076340 -0.094914
9199.000000 -305.434895 -391.506706 -64.640537 0.556036 0.076275 -0.095088
9200.000000 -305.339808 -390.950670 -64.716812 0.555838 0.076209 -0.095261
9201.000000 -305.244547 -390.394831 -64.793021 0.555640 0.076144 -0.095434
9202.000000 -305.149112 -389.839191 -64.869165 0.555443 0.076078 -0.095608
9203.000000 -305.053505 -389.283748 -64.945243 0.555245 0.076013 -0.095781
9204.000000 -304.957723 -388.728504 -65.021256 0.555047 0.075947 -0.095955
9205.000000 -304.861769 -388.173457 -65.097202 0.554849 0.075881 -0.096128
9206.000000 -304.765640 -387.618608 -65.173084 0.554651 0.075816 -0.096302
9207.000000 -304.669339 -387.063957 -65.248900 0.554453 0.075750 -0.096475
9208.000000 -304.572864 -386.509504 -65.324650 0.554255 0.075685 -0.096648
9209.000000 -304.476215 -385.955249 -65.400335 0.554057 0.075619 -0.096822
9210.000000 -304.379393 -385.401192 -65.475954 0.553859 0.075554 -0.096995
9211.000000 -304.282398 -384.847333 -65.551507 0.553650 0.075485 -0.097166
9212.000000 -304.185232 -384.293683 -65.626993 0.553441 0.075417 -0.097337
9213.000000 -304.087895 -383.740242 -65.702410 0.553232 0.075349 -0.097508
9214.000000 -303.990387 -383.187010 -65.777759 0.553023 0.075281 -0.097678
9215.000000 -303.892709 -382.633987 -65.853039 0.552814 0.075212 -0.097849
9216.000000 -303.794860 -382.081173 -65.928252 0.552605 0.075144 -0.098020
9217.000000 -303.696840 -381.528569 -66.003396 0.552395 0.075076 -0.098191
9218.000000 -303.598649 -380.976173 -66.078472 0.552186 0.075008 -0.098362
9219.000000 -303.500287 -380.423987 -66.153480 0.551977 0.074940 -0.098532
9220.000000 -303.401755 -379.872010 -66.228420 0.551768 0.074871 -0.098703
9221.000000 -303.303052 -379.320242 -66.303291 0.551559 0.074803 -0.098874
9222.000000 -303.204178 -378.768683 -66.378094 0.551350 0.074735 -0.099045
9223.000000 -303.105133 -378.217333 -66.452829 0.551141 0.074667 -0.099216
9224.000000 -303.005917 -377.666193 -66.527496 0.550932 0.074598 -0.099386
9225.000000 -302.906531 -377.115261 -66.602094 0.550722 0.074530 -0.099557
9226.000000 -302.806974 -376.564539 -66.676624 0.550513 0.074462 -0.099728
9227.000000 -302.707246 -376.014025 -66.751086 0.550304 0.074394 -0.099899
9228.000000 -302.607347 -375.463721 -66.825480 0.550095 0.074326 -0.100069
9229.000000 -302.507278 -374.913626 -66.899806 0.549886 0.074257 -0.100240
9230.000000 -302.407038 -374.363740 -66.974063 0.549677 0.074189 -0.100411
9231.000000 -302.306627 -373.814064 -67.048252 0.549468 0.074121 -0.100582
9232.000000 -302.206045 -373.264596 -67.122373 0.549259 0.074053 -0.100753
9233.000000 -302.105292 -372.715337 -67.196426 0.549049 0.073984 -0.100923
9234.000000 -302.004369 -372.166288 -67.270410 0.548840 0.073916 -0.101094
9235.000000 -301.903275 -371.617448 -67.344327 0.548631 0.073848 -0.101265
9236.000000 -301.802010 -371.068816 -67.418175 0.548422 0.073780 -0.101436
9237.000000 -301.700574 -370.520394 -67.491954 0.548213 0.073712 -0.101607
9238.000000 -301.598968 -369.972181 -67.565666 0.548004 0.073643 -0.101777
9239.000000 -301.497190 -369.424178 -67.639309 0.547795 0.073575 -0.101948
9240.000000 -301.395242 -368.876383 -67.712885 0.547586 0.073507 -0.102119
9241.000000 -301.293123 -368.328797 -67.786391 0.547365 0.073436 -0.102287
9242.000000 -301.190837 -367.781432 -67.859828 0.547145 0.073365 -0.102455
9243.000000 -301.088382 -367.234287 -67.933193 0.546925 0.073294 -0.102623
9244.000000 -300.985759 -366.687362 -68.006487 0.546705 0.073224 -0.102791
9245.000000 -300.882969 -366.140657 -68.079711 0.546485 0.073153 -0.102959
9246.000000 -300.780010 -365.594172 -68.152864 0.546265 0.073082 -0.103126
9247.000000 -300.676884 -365.047908 -68.225946 0.546044 0.073011 -0.103294
9248.000000 -300.573589 -364.501863 -68.298957 0.545824 0.072940 -0.103462
9249.000000 -300.470127 -363.956039 -68.371898 0.545604 0.072870 -0.103630
9250.000000 -300.366497 -363.410435 -68.444767 0.545384 0.072799 -0.103798
9251.000000 -300.262698 -362.865051 -68.517566 0.545164 0.072728 -0.103966
9252.000000 -300.158732 -362.319887 -68.590294 0.544944 0.072657 -0.104134
9253.000000 -300.054598 -361.774944 -68.662952 0.544723 0.072586 -0.104302
9254.000000 -299.950296 -361.230221 -68.735538 0.544503 0.072516 -0.104470
9255.000000 -299.845826 -360.685717 -68.808054 0.544283 0.072445 -0.104638
9256.000000 -299.741188 -360.141434 -68.880498 0.544063 0.072374 -0.104806
9257.000000 -299.636382 -359.597372 -68.952872 0.543843 0.072303 -0.104974
9258.000000 -299.531408 -359.053529 -69.025176 0.543623 0.072232 -0.105142
9259.000000 -299.426267 -358.509906 -69.097408 0.543402 0.072162 -0.105310
9260.000000 -299.320957 -357.966504 -69.169570 0.543182 0.072091 -0.105478
9261.000000 -299.215479 -357.423322 -69.241660 0.542962 0.072020 -0.105646
9262.000000 -299.109834 -356.880360 -69.313680 0.542742 0.071949 -0.105813
9263.000000 -299.004020 -356.337618 -69.385629 0.542522 0.071878 -0.105981
9264.000000 -298.898039 -355.795096 -69.457508 0.542301 0.071808 -0.106149
9265.000000 -298.791890 -355.252795 -69.529315 0.542081 0.071737 -0.106317
9266.000000 -298.685572 -354.710714 -69.601052 0.541861 0.071666 -0.106485
9267.000000 -298.579087 -354.168852 -69.672718 0.541641 0.071595 -0.106653
9268.000000 -298.472434 -353.627212 -69.744313 0.541421 0.071524 -0.106821
9269.000000 -298.365613 -353.085791 -69.815837 0.541201 0.071454 -0.106989
9270.000000 -298.258624 -352.544590 -69.887291 0.540980 0.071383 -0.107157
9271.000000 -298.151467 -352.003610 -69.958674 0.540749 0.071309 -0.107322
9272.000000 -298.044145 -351.462860 -70.029983 0.540518 0.071236 -0.107487
9273.000000 -297.936658 -350.922342 -70.101219 0.540287 0.071163 -0.107652
9274.000000 -297.829006 -350.382054 -70.172382 0.540056 0.071089 -0.107817
9275.000000 -297.721190 -349.841998 -70.243471 0.539825 0.071016 -0.107982
9276.000000 -297.613208 -349.302173 -70.314487 0.539594 0.070943 -0.108146
9277.000000 -297.505062 -348.762578 -70.385430 0.539363 0.070869 -0.108311
9278.000000 -297.396751 -348.223215 -70.456300 0.539132 0.070796 -0.108476
9279.000000 -297.288274 -347.684083 -70.527096 0.538901 0.070723 -0.108641
9280.000000 -297.179633 -347.145182 -70.597819 0.538670 0.070650 -0.108806
9281.000000 -297.070827 -346.606512 -70.668468 0.538439 0.070576 -0.108971
9282.000000 -296.961856 -346.068073 -70.739044 0.538208 0.070503 -0.109136
9283.000000 -296.852720 -345.529865 -70.809547 0.537977 0.070430 -0.109301
9284.000000 -296.743420 -344.991887 -70.879977 0.537746 0.070356 -0.109466
9285.000000 -296.633954 -344.454141 -70.950333 0.537515 0.070283 -0.109631
9286.000000 -296.524323 -343.916626 -71.020616 0.537284 0.070210 -0.109795
9287.000000 -296.414528 -343.379343 -71.090825 0.537053 0.070136 -0.109960
9288.000000 -296.304568 -342.842290 -71.160962 0.536822 0.070063 -0.110125
9289.000000 -296.194442 -342.305468 -71.231025 0.536591 0.069990 -0.110290
9290.000000 -296.084152 -341.768877 -71.301014 0.536360 0.069916 -0.110455
9291.000000 -295.973697 -341.232517 -71.370931 0.536129 0.069843 -0.110620
9292.000000 -295.863077 -340.696388 -71.440774 0.535898 0.069770 -0.110785
9293.000000 -295.752292 -340.160491 -71.510543 0.535667 0.069696 -0.110950
9294.000000 -295.641343 -339.624824 -71.580240 0.535436 0.069623 -0.111115
9295.000000 -295.530228 -339.089388 -71.649863 0.535205 0.069550 -0.111280
9296.000000 -295.418948 -338.554183 -71.719412 0.534974 0.069476 -0.111445
9297.000000 -295.307504 -338.019210 -71.788889 0.534743 0.069403 -0.111609
9298.000000 -295.195894 -337.484467 -71.858292 0.534512 0.069330 -0.111774
9299.000000 -295.084120 -336.949956 -71.927622 0.534281 0.069256 -0.111939
9300.000000 -294.972181 -336.415675 -71.996878 0.534050 0.069183 -0.112104
9301.000000 -294.860077 -335.881626 -72.066061 0.533808 0.069107 -0.112266
9302.000000 -294.747811 -335.347818 -72.135169 0.533566 0.069032 -0.112427
9303.000000 -294.635383 -334.814252 -72.204200 0.533324 0.068956 -0.112589
9304.000000 -294.522794 -334.280927 -72.273156 0.533083 0.068880 -0.112751
9305.000000 -294.410043 -333.747845 -72.342036 0.532841 0.068804 -0.112913
9306.000000 -294.297131 -333.215004 -72.410841 0.532599 0.068729 -0.113074
9307.000000 -294.184057 -332.682404 -72.479569 0.532358 0.068653 -0.113236
END Ephemeris